OBJECT_NAME,OBJECT_ID,EPOCH,MEAN_MOTION,ECCENTRICITY,INCLINATION,RA_OF_ASC_NODE,ARG_OF_PERICENTER,MEAN_ANOMALY,EPHEMERIS_TYPE,CLASSIFICATION_TYPE,NORAD_CAT_ID,ELEMENT_SET_NO,REV_AT_EPOCH,BSTAR,MEAN_MOTION_DOT,MEAN_MOTION_DDOT
SL-8 R/B,1985-006B,2026-07-12T14:51:15.670368,14.37844362,.00192868,74.0451,31.2623,274.7986,141.3732,0,U,15483,999,17198,.47995681E-4,.119E-5,0
SL-12 R/B(2),1985-042D,2026-07-12T13:43:07.134240,14.22010609,.00372359,71.1065,183.8844,290.0323,208.3338,0,U,15772,999,13214,-.2009966E-5,-.52E-6,0
SL-14 R/B,1985-069B,2026-07-12T05:01:45.982272,14.86533917,.00198684,82.5265,267.8343,136.6030,223.6755,0,U,15945,999,19133,.23230056E-4,.231E-5,0
SL-16 R/B,1985-097B,2026-07-12T13:20:05.936064,14.16612177,.00055353,71.0009,237.6702,56.9973,49.6357,0,U,16182,999,10491,.7576693E-5,-.33E-6,0
SL-14 R/B,1986-006B,2026-07-12T06:52:34.116672,14.86966950,.00752559,82.5282,142.4943,218.6317,140.9503,0,U,16496,999,16772,.23314109E-4,.246E-5,0
COSMOS 1743,1986-034A,2026-07-12T06:55:55.122816,15.69378338,.0005295,82.5282,301.9968,185.6738,174.4465,0,U,16719,999,19972,.31357E-3,.36827E-3,0
SL-14 R/B,1986-046B,2026-07-12T09:49:42.028608,14.85689268,.00232825,82.4837,322.3423,172.0974,188.0614,0,U,16792,999,14492,.25025025E-4,.243E-5,0
SL-14 R/B,1986-055B,2026-07-12T14:30:09.959616,14.85739223,.00173111,82.5201,9.2325,279.6849,148.7272,0,U,16882,999,13791,.21897505E-4,.215E-5,0
AJISAI (EGS),1986-061A,2026-07-12T14:19:09.155136,12.44516739,.00110918,50.0099,69.2621,245.2336,201.6364,0,U,16908,999,48355,.10924368E-3,-.82E-6,0
SL-14 R/B,1987-024B,2026-07-12T11:09:27.686592,14.86230506,.00175894,82.5295,335.4899,203.0412,157.0018,0,U,17567,999,10666,.2598949E-4,.253E-5,0
COSMOS 1833,1987-027A,2026-07-11T19:31:48.204768,14.13065553,.00240083,70.9211,65.1077,14.1554,346.0235,0,U,17589,999,2785,.88850383E-4,.118E-5,0
SL-16 R/B,1987-027B,2026-07-12T13:20:22.360704,14.17173198,.00071407,71.0030,13.3682,284.0988,75.9342,0,U,17590,999,3303,-.14912933E-4,-.78E-6,0
SL-14 R/B,1987-038B,2026-07-12T09:20:44.713824,14.85460355,.00207518,82.5010,179.3326,110.8174,249.5268,0,U,17912,999,9774,.24172538E-4,.234E-5,0
COSMOS 1844,1987-041A,2026-07-12T06:44:56.491296,14.14579576,.00315065,70.8996,131.3759,199.4239,160.5685,0,U,17973,999,2120,.10831195E-3,.161E-5,0
SL-14 R/B,1987-055B,2026-07-12T13:06:42.206976,14.85726051,.00195924,82.4973,231.3228,324.3332,35.6574,0,U,18153,999,8847,.19669217E-4,.195E-5,0
COSMOS 1867,1987-060A,2026-07-12T13:30:07.068384,14.31518301,.00170842,65.0120,316.9926,282.0101,77.9068,0,U,18187,999,3781,.10894343E-4,-.71E-6,0
SL-14 R/B,1988-001B,2026-07-12T03:30:16.572096,14.85625592,.00179027,82.5124,78.2920,181.8420,178.2733,0,U,18749,999,6050,.21870024E-4,.214E-5,0
COSMOS 1933,1988-020A,2026-07-12T08:05:03.179904,15.18878502,.00057504,82.5139,127.5285,114.7765,245.4069,0,U,18958,999,6914,.87735325E-4,.1861E-4,0
SL-3 R/B,1988-032B,2026-07-12T13:44:48.260256,15.21019587,.0026262,97.5268,176.5926,154.5125,205.7412,0,U,19046,999,7108,.10697858E-3,.2322E-4,0
SL-16 R/B,1988-039B,2026-07-12T08:18:38.720736,14.19631421,.00207539,71.0137,164.9586,154.0706,206.1464,0,U,19120,999,97607,-.66560248E-4,-.189E-5,0
COSMOS 1953,1988-050A,2026-07-12T14:07:06.506400,15.30314827,.00117003,82.5062,32.4107,48.3576,311.8664,0,U,19210,999,5687,.15454816E-3,.4573E-4,0
SL-8 R/B,1988-053B,2026-07-12T14:37:01.890624,14.38977367,.00196431,74.0460,242.1964,28.6362,132.6191,0,U,19257,999,99456,.46549666E-4,.118E-5,0
COSMOS 1975,1988-093A,2026-07-12T11:21:26.407584,15.29641140,.00125547,82.5192,352.2587,90.8294,269.4385,0,U,19573,999,3847,.12777478E-3,.3711E-4,0
SL-14 R/B,1988-093B,2026-07-12T06:03:57.108384,14.85758970,.002027,82.5317,285.1141,350.2743,39.0026,0,U,19574,999,1951,.20544E-4,.203E-5,0
SL-16 R/B,1988-102B,2026-07-12T13:47:47.871168,14.16167252,.00144577,70.9981,248.7209,189.6824,170.4023,0,U,19650,999,94457,-.850825E-4,-.216E-5,0
INTERCOSMOS 24,1989-080A,2026-07-12T14:08:33.825696,12.59691122,.1187344,82.6047,23.1112,2.9940,357.7488,0,U,20261,999,68252,.58282593E-4,.213E-5,0
SL-14 R/B,1989-080C,2026-07-12T02:56:12.007680,12.50578093,.12285938,82.5937,93.2868,260.3236,85.7278,0,U,20262,999,67570,.1595713E-4,.55E-6,0
DELTA 1 R/B,1989-089B,2026-07-12T12:46:19.832736,14.50746826,.00706489,97.0634,21.0344,88.2077,272.7211,0,U,20323,999,91383,.4548376E-4,.15E-5,0
ARIANE 40 R/B,1990-005H,2026-07-12T03:07:01.624224,14.39939873,.00100614,98.2947,249.9687,183.0738,177.0390,0,U,20443,999,91071,.47927971E-4,.109E-5,0
DELTA 2 R/B(1),1990-008B,2026-07-11T23:24:56.494368,15.73093935,.0060492,35.6004,69.3143,345.6004,14.3014,0,U,20453,999,94560,.49289605E-3,.79208E-3,0
